FLOCK 4G-3              
1 62639U 25009AG  26068.80174065  .00011494  00000+0  43389-3 0  9993
2 62639  97.4062 151.4068 0001320 293.2042  66.9058 15.27179310 63727
STARLINK-33685          
1 63465U 25070F   26068.55158695  .00038134  00000+0  13874-2 0  9997
2 63465  42.9934 260.7201 0001141 246.9043 113.1688 15.27597367 52951
